{
  "type": "FeatureCollection",
  "features": [
    {
      "type": "Feature",
      "properties": {
        "norad_id": 34492,
        "name": "IRIDIUM 33 DEB",
        "group": "iridium-33-debris",
        "lat": -66.03201449533506,
        "lon": 161.1925944364648,
        "alt_km": 684.8540616760811,
        "timestamp": "2025-12-16T05:49:09.598605+00:00",
        "meta_object_name": "IRIDIUM 33 DEB",
        "meta_object_id": "1997-051GH",
        "meta_epoch": "2025-12-15T10:44:59.012736",
        "meta_mean_motion": 14.25789641,
        "meta_eccentricity": 0.01889008,
        "meta_inclination": 86.4708,
        "meta_ra_of_asc_node": 333.5341,
        "meta_arg_of_pericenter": 229.3611,
        "meta_mean_anomaly": 260.3123,
        "meta_ephemeris_type": 0,
        "meta_classification_type": "U",
        "meta_norad_cat_id": 34492,
        "meta_element_set_no": 999,
        "meta_rev_at_epoch": 85097,
        "meta_bstar": 0.002450853,
        "meta_mean_motion_dot": 7.043e-05,
        "meta_mean_motion_ddot": 0,
        "tle_line1": "1 34492U 97051GH  25349.44790524  .00007043  00000+0  24509-2 0  9997",
        "tle_line2": "2 34492  86.4708 333.5341 0188900 229.3611 260.3123 14.25789641850972"
      },
      "geometry": {
        "type": "Point",
        "coordinates": [
          161.1925944364648,
          -66.03201449533506
        ]
      }
    },
    {
      "type": "Feature",
      "properties": {
        "norad_id": 34497,
        "name": "IRIDIUM 33 DEB",
        "group": "iridium-33-debris",
        "lat": 34.633900080848846,
        "lon": -131.67196781152953,
        "alt_km": 854.3193332911605,
        "timestamp": "2025-12-16T05:49:09.598615+00:00",
        "meta_object_name": "IRIDIUM 33 DEB",
        "meta_object_id": "1997-051GN",
        "meta_epoch": "2025-12-15T04:02:13.460640",
        "meta_mean_motion": 14.27461536,
        "meta_eccentricity": 0.00785278,
        "meta_inclination": 86.2779,
        "meta_ra_of_asc_node": 51.3639,
        "meta_arg_of_pericenter": 331.6581,
        "meta_mean_anomaly": 56.4646,
        "meta_ephemeris_type": 0,
        "meta_classification_type": "U",
        "meta_norad_cat_id": 34497,
        "meta_element_set_no": 999,
        "meta_rev_at_epoch": 86918,
        "meta_bstar": 0.00050796249,
        "meta_mean_motion_dot": 1.306e-05,
        "meta_mean_motion_ddot": 0,
        "tle_line1": "1 34497U 97051GN  25349.16821135  .00001306  00000+0  50796-3 0  9998",
        "tle_line2": "2 34497  86.2779  51.3639 0078527 331.6581  56.4646 14.27461536869183"
      },
      "geometry": {
        "type": "Point",
        "coordinates": [
          -131.67196781152953,
          34.633900080848846
        ]
      }
    },
    {
      "type": "Feature",
      "properties": {
        "norad_id": 34508,
        "name": "IRIDIUM 33 DEB",
        "group": "iridium-33-debris",
        "lat": 80.03976544467434,
        "lon": 122.34818801476753,
        "alt_km": 748.4415653976794,
        "timestamp": "2025-12-16T05:49:09.598625+00:00",
        "meta_object_name": "IRIDIUM 33 DEB",
        "meta_object_id": "1997-051GZ",
        "meta_epoch": "2025-12-15T17:45:23.056416",
        "meta_mean_motion": 14.38453467,
        "meta_eccentricity": 0.00664069,
        "meta_inclination": 86.3703,
        "meta_ra_of_asc_node": 101.3715,
        "meta_arg_of_pericenter": 163.2203,
        "meta_mean_anomaly": 197.1214,
        "meta_ephemeris_type": 0,
        "meta_classification_type": "U",
        "meta_norad_cat_id": 34508,
        "meta_element_set_no": 999,
        "meta_rev_at_epoch": 87352,
        "meta_bstar": 0.00092359251,
        "meta_mean_motion_dot": 2.911e-05,
        "meta_mean_motion_ddot": 0,
        "tle_line1": "1 34508U 97051GZ  25349.73985019  .00002911  00000+0  92359-3 0  9990",
        "tle_line2": "2 34508  86.3703 101.3715 0066406 163.2203 197.1214 14.38453467873521"
      },
      "geometry": {
        "type": "Point",
        "coordinates": [
          122.34818801476753,
          80.03976544467434
        ]
      }
    },
    {
      "type": "Feature",
      "properties": {
        "norad_id": 34521,
        "name": "IRIDIUM 33 DEB",
        "group": "iridium-33-debris",
        "lat": -33.326474322230126,
        "lon": -148.60797155210724,
        "alt_km": 687.180687214779,
        "timestamp": "2025-12-16T05:49:09.598635+00:00",
        "meta_object_name": "IRIDIUM 33 DEB",
        "meta_object_id": "1997-051HN",
        "meta_epoch": "2025-12-15T20:38:31.697376",
        "meta_mean_motion": 14.63395767,
        "meta_eccentricity": 0.00019285,
        "meta_inclination": 86.3802,
        "meta_ra_of_asc_node": 29.1747,
        "meta_arg_of_pericenter": 198.1405,
        "meta_mean_anomaly": 161.9739,
        "meta_ephemeris_type": 0,
        "meta_classification_type": "U",
        "meta_norad_cat_id": 34521,
        "meta_element_set_no": 999,
        "meta_rev_at_epoch": 88518,
        "meta_bstar": 0.00058798888,
        "meta_mean_motion_dot": 3.06e-05,
        "meta_mean_motion_ddot": 0,
        "tle_line1": "1 34521U 97051HN  25349.86008909  .00003060  00000+0  58799-3 0  9999",
        "tle_line2": "2 34521  86.3802  29.1747 0001928 198.1405 161.9739 14.63395767885189"
      },
      "geometry": {
        "type": "Point",
        "coordinates": [
          -148.60797155210724,
          -33.326474322230126
        ]
      }
    },
    {
      "type": "Feature",
      "properties": {
        "norad_id": 34525,
        "name": "IRIDIUM 33 DEB",
        "group": "iridium-33-debris",
        "lat": 45.233909577073135,
        "lon": -138.31791419216006,
        "alt_km": 741.9256291347538,
        "timestamp": "2025-12-16T05:49:09.598661+00:00",
        "meta_object_name": "IRIDIUM 33 DEB",
        "meta_object_id": "1997-051HS",
        "meta_epoch": "2025-12-15T21:40:31.725408",
        "meta_mean_motion": 14.42913103,
        "meta_eccentricity": 0.00065945,
        "meta_inclination": 86.3727,
        "meta_ra_of_asc_node": 45.4937,
        "meta_arg_of_pericenter": 87.8759,
        "meta_mean_anomaly": 85.1311,
        "meta_ephemeris_type": 0,
        "meta_classification_type": "U",
        "meta_norad_cat_id": 34525,
        "meta_element_set_no": 999,
        "meta_rev_at_epoch": 88133,
        "meta_bstar": 0.00033416903,
        "meta_mean_motion_dot": 1.136e-05,
        "meta_mean_motion_ddot": 0,
        "tle_line1": "1 34525U 97051HS  25349.90314497  .00001136  00000+0  33417-3 0  9992",
        "tle_line2": "2 34525  86.3727  45.4937 0006594  87.8759  85.1311 14.42913103881334"
      },
      "geometry": {
        "type": "Point",
        "coordinates": [
          -138.31791419216006,
          45.233909577073135
        ]
      }
    },
    {
      "type": "Feature",
      "properties": {
        "norad_id": 34529,
        "name": "IRIDIUM 33 DEB",
        "group": "iridium-33-debris",
        "lat": 0.30568049428668637,
        "lon": 33.93821010435288,
        "alt_km": 763.0391096207477,
        "timestamp": "2025-12-16T05:49:09.598672+00:00",
        "meta_object_name": "IRIDIUM 33 DEB",
        "meta_object_id": "1997-051HW",
        "meta_epoch": "2025-12-15T13:08:52.059264",
        "meta_mean_motion": 14.40617967,
        "meta_eccentricity": 0.0005159,
        "meta_inclination": 86.364,
        "meta_ra_of_asc_node": 34.2148,
        "meta_arg_of_pericenter": 168.1879,
        "meta_mean_anomaly": 191.9443,
        "meta_ephemeris_type": 0,
        "meta_classification_type": "U",
        "meta_norad_cat_id": 34529,
        "meta_element_set_no": 999,
        "meta_rev_at_epoch": 88182,
        "meta_bstar": 0.00011184947,
        "meta_mean_motion_dot": 3.76e-06,
        "meta_mean_motion_ddot": 0,
        "tle_line1": "1 34529U 97051HW  25349.54782476  .00000376  00000+0  11185-3 0  9995",
        "tle_line2": "2 34529  86.3640  34.2148 0005159 168.1879 191.9443 14.40617967881827"
      },
      "geometry": {
        "type": "Point",
        "coordinates": [
          33.93821010435288,
          0.30568049428668637
        ]
      }
    },
    {
      "type": "Feature",
      "properties": {
        "norad_id": 34538,
        "name": "IRIDIUM 33 DEB",
        "group": "iridium-33-debris",
        "lat": -42.866391656606005,
        "lon": -172.5131039435828,
        "alt_km": 757.6841213638209,
        "timestamp": "2025-12-16T05:49:09.598687+00:00",
        "meta_object_name": "IRIDIUM 33 DEB",
        "meta_object_id": "1997-051JF",
        "meta_epoch": "2025-12-15T02:29:33.974016",
        "meta_mean_motion": 14.42663617,
        "meta_eccentricity": 0.00326013,
        "meta_inclination": 86.2774,
        "meta_ra_of_asc_node": 4.5209,
        "meta_arg_of_pericenter": 319.9523,
        "meta_mean_anomaly": 113.6008,
        "meta_ephemeris_type": 0,
        "meta_classification_type": "U",
        "meta_norad_cat_id": 34538,
        "meta_element_set_no": 999,
        "meta_rev_at_epoch": 87790,
        "meta_bstar": 0.00070844828,
        "meta_mean_motion_dot": 2.389e-05,
        "meta_mean_motion_ddot": 0,
        "tle_line1": "1 34538U 97051JF  25349.10386544  .00002389  00000+0  70845-3 0  9997",
        "tle_line2": "2 34538  86.2774   4.5209 0032601 319.9523 113.6008 14.42663617877903"
      },
      "geometry": {
        "type": "Point",
        "coordinates": [
          -172.5131039435828,
          -42.866391656606005
        ]
      }
    }
  ]
}